[{"OBJECT_NAME":"SL-8 R/B","OBJECT_ID":"1979-089B","EPOCH":"2026-04-14T04:30:33.965568","MEAN_MOTION":14.42374523,"ECCENTRICITY":0.00161183,"INCLINATION":74.0712,"RA_OF_ASC_NODE":25.3308,"ARG_OF_PERICENTER":192.2669,"MEAN_ANOMALY":167.8098,"EPHEMERIS_TYPE":0,"CLASSIFICATION_TYPE":"U","NORAD_CAT_ID":11574,"ELEMENT_SET_NO":999,"REV_AT_EPOCH":44122,"BSTAR":5.2309966e-5,"MEAN_MOTION_DOT":1.47e-6,"MEAN_MOTION_DDOT":0},{"OBJECT_NAME":"SL-14 R/B","OBJECT_ID":"1980-005B","EPOCH":"2026-04-13T18:15:20.737152","MEAN_MOTION":14.9097206,"ECCENTRICITY":0.001684,"INCLINATION":82.5112,"RA_OF_ASC_NODE":273.9569,"ARG_OF_PERICENTER":50.234,"MEAN_ANOMALY":310.0359,"EPHEMERIS_TYPE":0,"CLASSIFICATION_TYPE":"U","NORAD_CAT_ID":11672,"ELEMENT_SET_NO":999,"REV_AT_EPOCH":48171,"BSTAR":3.6423e-5,"MEAN_MOTION_DOT":3.86e-6,"MEAN_MOTION_DDOT":0},{"OBJECT_NAME":"SL-8 R/B","OBJECT_ID":"1981-003B","EPOCH":"2026-04-14T03:32:50.272512","MEAN_MOTION":15.12553505,"ECCENTRICITY":0.02576343,"INCLINATION":82.9369,"RA_OF_ASC_NODE":257.1938,"ARG_OF_PERICENTER":55.4591,"MEAN_ANOMALY":307.0666,"EPHEMERIS_TYPE":0,"CLASSIFICATION_TYPE":"U","NORAD_CAT_ID":12139,"ELEMENT_SET_NO":999,"REV_AT_EPOCH":32003,"BSTAR":0.0002476568,"MEAN_MOTION_DOT":9.984e-5,"MEAN_MOTION_DDOT":0},{"OBJECT_NAME":"SL-3 R/B","OBJECT_ID":"1981-046B","EPOCH":"2026-04-14T04:55:06.399552","MEAN_MOTION":15.42890588,"ECCENTRICITY":0.00180667,"INCLINATION":81.2295,"RA_OF_ASC_NODE":247.0611,"ARG_OF_PERICENTER":254.9611,"MEAN_ANOMALY":104.9633,"EPHEMERIS_TYPE":0,"CLASSIFICATION_TYPE":"U","NORAD_CAT_ID":12465,"ELEMENT_SET_NO":999,"REV_AT_EPOCH":44390,"BSTAR":0.00015884404,"MEAN_MOTION_DOT":7.045e-5,"MEAN_MOTION_DDOT":0},{"OBJECT_NAME":"SL-3 R/B","OBJECT_ID":"1981-103B","EPOCH":"2026-04-14T03:38:37.582368","MEAN_MOTION":15.21782082,"ECCENTRICITY":0.00136875,"INCLINATION":81.1601,"RA_OF_ASC_NODE":171.8287,"ARG_OF_PERICENTER":162.718,"MEAN_ANOMALY":197.452,"EPHEMERIS_TYPE":0,"CLASSIFICATION_TYPE":"U","NORAD_CAT_ID":12904,"ELEMENT_SET_NO":999,"REV_AT_EPOCH":97862,"BSTAR":9.8480073e-5,"MEAN_MOTION_DOT":2.265e-5,"MEAN_MOTION_DDOT":0},{"OBJECT_NAME":"SL-3 R/B","OBJECT_ID":"1982-013B","EPOCH":"2026-04-14T05:05:12.525792","MEAN_MOTION":15.22323921,"ECCENTRICITY":0.00233388,"INCLINATION":81.1712,"RA_OF_ASC_NODE":119.1221,"ARG_OF_PERICENTER":62.2161,"MEAN_ANOMALY":298.1433,"EPHEMERIS_TYPE":0,"CLASSIFICATION_TYPE":"U","NORAD_CAT_ID":13068,"ELEMENT_SET_NO":999,"REV_AT_EPOCH":40975,"BSTAR":8.2138523e-5,"MEAN_MOTION_DOT":1.934e-5,"MEAN_MOTION_DDOT":0},{"OBJECT_NAME":"SL-3 R/B","OBJECT_ID":"1982-039B","EPOCH":"2026-04-14T04:06:00.594144","MEAN_MOTION":15.10274423,"ECCENTRICITY":0.00279223,"INCLINATION":81.1525,"RA_OF_ASC_NODE":175.0413,"ARG_OF_PERICENTER":204.6925,"MEAN_ANOMALY":155.2966,"EPHEMERIS_TYPE":0,"CLASSIFICATION_TYPE":"U","NORAD_CAT_ID":13154,"ELEMENT_SET_NO":999,"REV_AT_EPOCH":38699,"BSTAR":6.1730781e-5,"MEAN_MOTION_DOT":1.043e-5,"MEAN_MOTION_DDOT":0},{"OBJECT_NAME":"SL-3 R/B","OBJECT_ID":"1982-079B","EPOCH":"2026-04-14T05:29:40.538688","MEAN_MOTION":15.25237756,"ECCENTRICITY":0.00250189,"INCLINATION":81.146,"RA_OF_ASC_NODE":151.1053,"ARG_OF_PERICENTER":48.4649,"MEAN_ANOMALY":311.8724,"EPHEMERIS_TYPE":0,"CLASSIFICATION_TYPE":"U","NORAD_CAT_ID":13403,"ELEMENT_SET_NO":999,"REV_AT_EPOCH":38311,"BSTAR":9.7110392e-5,"MEAN_MOTION_DOT":2.489e-5,"MEAN_MOTION_DDOT":0},{"OBJECT_NAME":"SL-14 R/B","OBJECT_ID":"1982-092B","EPOCH":"2026-04-13T12:21:12.086208","MEAN_MOTION":14.86697912,"ECCENTRICITY":0.0020252,"INCLINATION":82.5645,"RA_OF_ASC_NODE":108.8154,"ARG_OF_PERICENTER":181.1328,"MEAN_ANOMALY":276.9079,"EPHEMERIS_TYPE":0,"CLASSIFICATION_TYPE":"U","NORAD_CAT_ID":13553,"ELEMENT_SET_NO":999,"REV_AT_EPOCH":33410,"BSTAR":3.0297e-5,"MEAN_MOTION_DOT":2.95e-6,"MEAN_MOTION_DDOT":0},{"OBJECT_NAME":"SL-3 R/B","OBJECT_ID":"1983-010B","EPOCH":"2026-04-14T06:31:48.027360","MEAN_MOTION":15.47502872,"ECCENTRICITY":0.00150474,"INCLINATION":81.1022,"RA_OF_ASC_NODE":318.5828,"ARG_OF_PERICENTER":284.2694,"MEAN_ANOMALY":75.688,"EPHEMERIS_TYPE":0,"CLASSIFICATION_TYPE":"U","NORAD_CAT_ID":13819,"ELEMENT_SET_NO":999,"REV_AT_EPOCH":36344,"BSTAR":0.00014738443,"MEAN_MOTION_DOT":7.633e-5,"MEAN_MOTION_DDOT":0},{"OBJECT_NAME":"SL-3 R/B","OBJECT_ID":"1983-075B","EPOCH":"2026-04-14T06:08:54.542112","MEAN_MOTION":15.39268223,"ECCENTRICITY":0.00232396,"INCLINATION":97.6131,"RA_OF_ASC_NODE":110.2043,"ARG_OF_PERICENTER":101.9094,"MEAN_ANOMALY":258.4759,"EPHEMERIS_TYPE":0,"CLASSIFICATION_TYPE":"U","NORAD_CAT_ID":14208,"ELEMENT_SET_NO":999,"REV_AT_EPOCH":33562,"BSTAR":0.00016216579,"MEAN_MOTION_DOT":6.284e-5,"MEAN_MOTION_DDOT":0},{"OBJECT_NAME":"COSMOS 1536","OBJECT_ID":"1984-013A","EPOCH":"2026-04-13T21:52:23.971584","MEAN_MOTION":15.2432661,"ECCENTRICITY":0.0015234,"INCLINATION":82.543,"RA_OF_ASC_NODE":72.8156,"ARG_OF_PERICENTER":151.4119,"MEAN_ANOMALY":208.7957,"EPHEMERIS_TYPE":0,"CLASSIFICATION_TYPE":"U","NORAD_CAT_ID":14699,"ELEMENT_SET_NO":999,"REV_AT_EPOCH":27798,"BSTAR":0.00016946,"MEAN_MOTION_DOT":4.189e-5,"MEAN_MOTION_DDOT":0},{"OBJECT_NAME":"SL-14 R/B","OBJECT_ID":"1984-027B","EPOCH":"2026-04-14T05:55:29.780544","MEAN_MOTION":14.86015305,"ECCENTRICITY":0.0017173,"INCLINATION":82.544,"RA_OF_ASC_NODE":211.6673,"ARG_OF_PERICENTER":211.533,"MEAN_ANOMALY":148.4859,"EPHEMERIS_TYPE":0,"CLASSIFICATION_TYPE":"U","NORAD_CAT_ID":14820,"ELEMENT_SET_NO":999,"REV_AT_EPOCH":25291,"BSTAR":3.054914e-5,"MEAN_MOTION_DOT":2.92e-6,"MEAN_MOTION_DDOT":0},{"OBJECT_NAME":"SL-8 R/B","OBJECT_ID":"1985-006B","EPOCH":"2026-04-14T04:56:13.515936","MEAN_MOTION":14.37807403,"ECCENTRICITY":0.00172522,"INCLINATION":74.0464,"RA_OF_ASC_NODE":195.7961,"ARG_OF_PERICENTER":102.193,"MEAN_ANOMALY":282.2432,"EPHEMERIS_TYPE":0,"CLASSIFICATION_TYPE":"U","NORAD_CAT_ID":15483,"ELEMENT_SET_NO":999,"REV_AT_EPOCH":15913,"BSTAR":4.761097e-5,"MEAN_MOTION_DOT":1.18e-6,"MEAN_MOTION_DDOT":0},{"OBJECT_NAME":"SL-12 R/B(2)","OBJECT_ID":"1985-042D","EPOCH":"2026-04-14T05:45:22.986432","MEAN_MOTION":14.21992729,"ECCENTRICITY":0.00330466,"INCLINATION":71.1105,"RA_OF_ASC_NODE":12.6213,"ARG_OF_PERICENTER":69.0933,"MEAN_ANOMALY":100.531,"EPHEMERIS_TYPE":0,"CLASSIFICATION_TYPE":"U","NORAD_CAT_ID":15772,"ELEMENT_SET_NO":999,"REV_AT_EPOCH":11944,"BSTAR":6.7141287e-5,"MEAN_MOTION_DOT":1.02e-6,"MEAN_MOTION_DDOT":0},{"OBJECT_NAME":"SL-14 R/B","OBJECT_ID":"1985-069B","EPOCH":"2026-04-14T03:40:59.808000","MEAN_MOTION":14.86470404,"ECCENTRICITY":0.00203426,"INCLINATION":82.5293,"RA_OF_ASC_NODE":351.5954,"ARG_OF_PERICENTER":76.0959,"MEAN_ANOMALY":284.2519,"EPHEMERIS_TYPE":0,"CLASSIFICATION_TYPE":"U","NORAD_CAT_ID":15945,"ELEMENT_SET_NO":999,"REV_AT_EPOCH":17810,"BSTAR":2.7392678e-5,"MEAN_MOTION_DOT":2.68e-6,"MEAN_MOTION_DDOT":0},{"OBJECT_NAME":"SL-16 R/B","OBJECT_ID":"1985-097B","EPOCH":"2026-04-14T07:26:49.532928","MEAN_MOTION":14.16605109,"ECCENTRICITY":0.0008674,"INCLINATION":71.0026,"RA_OF_ASC_NODE":65.5576,"ARG_OF_PERICENTER":216.0742,"MEAN_ANOMALY":293.7456,"EPHEMERIS_TYPE":0,"CLASSIFICATION_TYPE":"U","NORAD_CAT_ID":16182,"ELEMENT_SET_NO":999,"REV_AT_EPOCH":9227,"BSTAR":0.00014904379,"MEAN_MOTION_DOT":2.5e-6,"MEAN_MOTION_DDOT":0}]
