SL-8 R/B                
1 11574U 79089B   26104.18789312  .00000147  00000+0  52310-4 0  9999
2 11574  74.0712  25.3308 0016118 192.2669 167.8098 14.42374523441221
SL-14 R/B               
1 11672U 80005B   26103.76065668  .00000386  00000+0  36423-4 0  9994
2 11672  82.5112 273.9569 0016840  50.2340 310.0359 14.90972060481712
SL-8 R/B                
1 12139U 81003B   26104.14780408  .00009984  00000+0  24766-3 0  9990
2 12139  82.9369 257.1938 0257634  55.4591 307.0666 15.12553505320034
SL-3 R/B                
1 12465U 81046B   26104.20493518  .00007045  00000+0  15884-3 0  9996
2 12465  81.2295 247.0611 0018066 254.9611 104.9633 15.42890588443903
SL-3 R/B                
1 12904U 81103B   26104.15182387  .00002265  00000+0  98480-4 0  9994
2 12904  81.1601 171.8287 0013687 162.7180 197.4520 15.21782082978625
SL-3 R/B                
1 13068U 82013B   26104.21195053  .00001934  00000+0  82139-4 0  9994
2 13068  81.1712 119.1221 0023338  62.2161 298.1433 15.22323921409759
SL-3 R/B                
1 13154U 82039B   26104.17084021  .00001043  00000+0  61731-4 0  9991
2 13154  81.1525 175.0413 0027922 204.6925 155.2966 15.10274423386997
SL-3 R/B                
1 13403U 82079B   26104.22894142  .00002489  00000+0  97110-4 0  9996
2 13403  81.1460 151.1053 0025018  48.4649 311.8724 15.25237756383115
SL-14 R/B               
1 13553U 82092B   26103.51472322  .00000295  00000+0  30297-4 0  9996
2 13553  82.5645 108.8154 0020252 181.1328 276.9079 14.86697912334105
SL-3 R/B                
1 13819U 83010B   26104.27208365  .00007633  00000+0  14738-3 0  9994
2 13819  81.1022 318.5828 0015047 284.2694  75.6880 15.47502872363440
SL-3 R/B                
1 14208U 83075B   26104.25618683  .00006284  00000+0  16217-3 0  9999
2 14208  97.6131 110.2043 0023239 101.9094 258.4759 15.39268223335628
COSMOS 1536             
1 14699U 84013A   26103.91138856  .00004189  00000+0  16946-3 0  9998
2 14699  82.5430  72.8156 0015234 151.4119 208.7957 15.24326610277980
SL-14 R/B               
1 14820U 84027B   26104.24687246  .00000292  00000+0  30549-4 0  9995
2 14820  82.5440 211.6673 0017173 211.5330 148.4859 14.86015305252911
SL-8 R/B                
1 15483U 85006B   26104.20571199  .00000118  00000+0  47611-4 0  9999
2 15483  74.0464 195.7961 0017252 102.1930 282.2432 14.37807403159138
SL-12 R/B(2)            
1 15772U 85042D   26104.23984938  .00000102  00000+0  67141-4 0  9995
2 15772  71.1105  12.6213 0033046  69.0933 100.5310 14.21992729119445
SL-14 R/B               
1 15945U 85069B   26104.15347000  .00000268  00000+0  27393-4 0  9998
2 15945  82.5293 351.5954 0020342  76.0959 284.2519 14.86470404178100
SL-16 R/B               
1 16182U 85097B   26104.31029552  .00000250  00000+0  14904-3 0  9994
2 16182  71.0026  65.5576 0008674 216.0742 293.7456 14.16605109 92276
